{"type":"FeatureCollection","name":"SYNTHETIC_DEMONSTRATION_HABITATIONS","features":[{"type":"Feature","properties":{"lgd_code":"043224","name":"Phata","risk_score":91,"risk_class":"Very High","synthetic":true},"geometry":{"type":"Point","coordinates":[79.0401,30.5774]}},{"type":"Feature","properties":{"lgd_code":"043221","name":"Ukhimath","risk_score":88,"risk_class":"Very High","synthetic":true},"geometry":{"type":"Point","coordinates":[79.0896,30.5126]}},{"type":"Feature","properties":{"lgd_code":"043219","name":"Tilwara","risk_score":72,"risk_class":"High","synthetic":true},"geometry":{"type":"Point","coordinates":[78.9794,30.3568]}}]}
